start=new Date('2022-03-07T00:00:00.000Z').valueOf();
sats=[{"MEAN_MOTION_DDOT":"0.0000000000000","NORAD_CAT_ID":"49760","FILE":"3347638","ECCENTRICITY":"0.00033090","RCS_SIZE":"LARGE","TLE_LINE2":"2 49760  53.2168 236.1225 0003309  13.5507  30.9930 15.40485732  3613","SITE":"AFETR","TIME_SYSTEM":"UTC","CENTER_NAME":"EARTH","OBJECT_NAME":"STARLINK-3199","MEAN_MOTION_DOT":"-0.00023556","SEMIMAJOR_AXIS":"6822.812","EPHEMERIS_TYPE":"0","MEAN_ELEMENT_THEORY":"SGP4","PERIOD":"93.477","APOAPSIS":"446.934","RA_OF_ASC_NODE":"236.1225","BSTAR":"-0.00056416000000","TLE_LINE1":"1 49760U 21115AN  22065.58334491 -.00023556  00000-0 -56416-3 0  9996","OBJECT_TYPE":"PAYLOAD","OBJECT_ID":"2021-115AN","MEAN_MOTION":"15.40485732","ELEMENT_SET_NO":"999","ARG_OF_PERICENTER":"13.5507","EPOCH":"2022-03-06T14:00:01.000224","CLASSIFICATION_TYPE":"U","INCLINATION":"53.2168","LAUNCH_DATE":"2021-12-02","DECAY_DATE":null,"REV_AT_EPOCH":"361","REF_FRAME":"TEME","GP_ID":"198069393","MEAN_ANOMALY":"30.9930","PERIAPSIS":"442.419","COUNTRY_CODE":"US"},{"MEAN_MOTION":"15.40473641","ELEMENT_SET_NO":"999","ARG_OF_PERICENTER":"11.3831","RA_OF_ASC_NODE":"236.1208","TLE_LINE1":"1 49761U 21115AP  22065.58334491 -.00003261  00000-0 -69431-4 0  9990","BSTAR":"-0.00006943100000","OBJECT_TYPE":"PAYLOAD","OBJECT_ID":"2021-115AP","EPHEMERIS_TYPE":"0","MEAN_ELEMENT_THEORY":"SGP4","PERIOD":"93.478","APOAPSIS":"447.090","SEMIMAJOR_AXIS":"6822.847","MEAN_MOTION_DOT":"-0.00003261","SITE":"AFETR","TIME_SYSTEM":"UTC","CENTER_NAME":"EARTH","OBJECT_NAME":"STARLINK-3203","FILE":"3347638","ECCENTRICITY":"0.00034840","RCS_SIZE":"LARGE","TLE_LINE2":"2 49761  53.2172 236.1208 0003484  11.3831  36.3177 15.40473641  3619","MEAN_MOTION_DDOT":"0.0000000000000","NORAD_CAT_ID":"49761","MEAN_ANOMALY":"36.3177","PERIAPSIS":"442.335","COUNTRY_CODE":"US","GP_ID":"198068143","REV_AT_EPOCH":"361","REF_FRAME":"TEME","DECAY_DATE":null,"CLASSIFICATION_TYPE":"U","INCLINATION":"53.2172","LAUNCH_DATE":"2021-12-02","EPOCH":"2022-03-06T14:00:01.000224"},{"CENTER_NAME":"EARTH","OBJECT_NAME":"STARLINK-3195","TIME_SYSTEM":"UTC","SITE":"AFETR","MEAN_MOTION_DOT":"-0.00031105","MEAN_MOTION_DDOT":"0.0000000000000","NORAD_CAT_ID":"49762","ECCENTRICITY":"0.00030730","FILE":"3347638","TLE_LINE2":"2 49762  53.2171 236.1294 0003073  16.1454  26.2450 15.40505768  3643","RCS_SIZE":"LARGE","RA_OF_ASC_NODE":"236.1294","OBJECT_TYPE":"PAYLOAD","OBJECT_ID":"2021-115AQ","TLE_LINE1":"1 49762U 21115AQ  22065.58334491 -.00031105  00000-0 -74839-3 0  9996","BSTAR":"-0.00074839000000","ELEMENT_SET_NO":"999","MEAN_MOTION":"15.40505768","ARG_OF_PERICENTER":"16.1454","SEMIMAJOR_AXIS":"6822.753","PERIOD":"93.476","MEAN_ELEMENT_THEORY":"SGP4","EPHEMERIS_TYPE":"0","APOAPSIS":"446.714","DECAY_DATE":null,"REF_FRAME":"TEME","REV_AT_EPOCH":"364","EPOCH":"2022-03-06T14:00:01.000224","CLASSIFICATION_TYPE":"U","INCLINATION":"53.2171","LAUNCH_DATE":"2021-12-02","PERIAPSIS":"442.521","MEAN_ANOMALY":"26.2450","COUNTRY_CODE":"US","GP_ID":"198068393"},{"MEAN_ANOMALY":"32.7989","PERIAPSIS":"442.382","COUNTRY_CODE":"US","GP_ID":"198069145","REV_AT_EPOCH":"361","REF_FRAME":"TEME","DECAY_DATE":null,"CLASSIFICATION_TYPE":"U","LAUNCH_DATE":"2021-12-02","INCLINATION":"53.2172","EPOCH":"2022-03-06T14:00:01.000224","MEAN_MOTION":"15.40481342","ELEMENT_SET_NO":"999","ARG_OF_PERICENTER":"12.7558","RA_OF_ASC_NODE":"236.1238","BSTAR":"-0.00082399000000","TLE_LINE1":"1 49763U 21115AR  22065.58334491 -.00034167  00000-0 -82399-3 0  9998","OBJECT_TYPE":"PAYLOAD","OBJECT_ID":"2021-115AR","EPHEMERIS_TYPE":"0","MEAN_ELEMENT_THEORY":"SGP4","PERIOD":"93.477","APOAPSIS":"446.998","SEMIMAJOR_AXIS":"6822.825","MEAN_MOTION_DOT":"-0.00034167","SITE":"AFETR","TIME_SYSTEM":"UTC","OBJECT_NAME":"STARLINK-3198","CENTER_NAME":"EARTH","ECCENTRICITY":"0.00033830","FILE":"3347638","RCS_SIZE":"LARGE","TLE_LINE2":"2 49763  53.2172 236.1238 0003383  12.7558  32.7989 15.40481342  3611","MEAN_MOTION_DDOT":"0.0000000000000","NORAD_CAT_ID":"49763"},{"RA_OF_ASC_NODE":"236.1295","OBJECT_ID":"2021-115AS","OBJECT_TYPE":"PAYLOAD","TLE_LINE1":"1 49764U 21115AS  22065.58334491 -.00021503  00000-0 -51404-3 0  9992","BSTAR":"-0.00051404000000","ELEMENT_SET_NO":"999","MEAN_MOTION":"15.40484308","ARG_OF_PERICENTER":"19.0269","SEMIMAJOR_AXIS":"6822.816","PERIOD":"93.477","MEAN_ELEMENT_THEORY":"SGP4","EPHEMERIS_TYPE":"0","APOAPSIS":"446.727","CENTER_NAME":"EARTH","OBJECT_NAME":"STARLINK-3206","SITE":"AFETR","TIME_SYSTEM":"UTC","MEAN_MOTION_DOT":"-0.00021503","MEAN_MOTION_DDOT":"0.0000000000000","NORAD_CAT_ID":"49764","ECCENTRICITY":"0.00029990","FILE":"3347638","TLE_LINE2":"2 49764  53.2167 236.1295 0002999  19.0269  21.3231 15.40484308  3619","RCS_SIZE":"LARGE","PERIAPSIS":"442.635","MEAN_ANOMALY":"21.3231","COUNTRY_CODE":"US","GP_ID":"198069894","DECAY_DATE":null,"REF_FRAME":"TEME","REV_AT_EPOCH":"361","EPOCH":"2022-03-06T14:00:01.000224","CLASSIFICATION_TYPE":"U","INCLINATION":"53.2167","LAUNCH_DATE":"2021-12-02"},{"APOAPSIS":"446.750","EPHEMERIS_TYPE":"0","MEAN_ELEMENT_THEORY":"SGP4","PERIOD":"93.477","SEMIMAJOR_AXIS":"6822.787","ARG_OF_PERICENTER":"17.6805","MEAN_MOTION":"15.40494027","ELEMENT_SET_NO":"999","TLE_LINE1":"1 49765U 21115AT  22065.58334491 -.00036542  00000-0 -88190-3 0  9994","BSTAR":"-0.00088190000000","OBJECT_ID":"2021-115AT","OBJECT_TYPE":"PAYLOAD","RA_OF_ASC_NODE":"236.1277","RCS_SIZE":"LARGE","TLE_LINE2":"2 49765  53.2172 236.1277 0003074  17.6805  25.8137 15.40494027  3614","ECCENTRICITY":"0.00030740","FILE":"3347638","NORAD_CAT_ID":"49765","MEAN_MOTION_DDOT":"0.0000000000000","MEAN_MOTION_DOT":"-0.00036542","TIME_SYSTEM":"UTC","SITE":"AFETR","CENTER_NAME":"EARTH","OBJECT_NAME":"STARLINK-3227","GP_ID":"198068644","COUNTRY_CODE":"US","MEAN_ANOMALY":"25.8137","PERIAPSIS":"442.555","LAUNCH_DATE":"2021-12-02","INCLINATION":"53.2172","CLASSIFICATION_TYPE":"U","EPOCH":"2022-03-06T14:00:01.000224","REV_AT_EPOCH":"361","REF_FRAME":"TEME","DECAY_DATE":null},{"TIME_SYSTEM":"UTC","SITE":"AFETR","OBJECT_NAME":"STARLINK-3190","CENTER_NAME":"EARTH","MEAN_MOTION_DOT":"-0.00007085","NORAD_CAT_ID":"49766","MEAN_MOTION_DDOT":"0.0000000000000","RCS_SIZE":"LARGE","TLE_LINE2":"2 49766  53.2167 236.1308 0003854  11.9349  27.3699 15.40480354  3618","ECCENTRICITY":"0.00038540","FILE":"3347638","BSTAR":"-0.00016245000000","TLE_LINE1":"1 49766U 21115AU  22065.58334491 -.00007085  00000-0 -16245-3 0  9997","OBJECT_ID":"2021-115AU","OBJECT_TYPE":"PAYLOAD","RA_OF_ASC_NODE":"236.1308","ARG_OF_PERICENTER":"11.9349","MEAN_MOTION":"15.40480354","ELEMENT_SET_NO":"999","SEMIMAJOR_AXIS":"6822.828","APOAPSIS":"447.322","EPHEMERIS_TYPE":"0","PERIOD":"93.477","MEAN_ELEMENT_THEORY":"SGP4","DECAY_DATE":null,"REV_AT_EPOCH":"361","REF_FRAME":"TEME","EPOCH":"2022-03-06T14:00:01.000224","LAUNCH_DATE":"2021-12-02","INCLINATION":"53.2167","CLASSIFICATION_TYPE":"U","COUNTRY_CODE":"US","MEAN_ANOMALY":"27.3699","PERIAPSIS":"442.063","GP_ID":"198068894"},{"MEAN_MOTION_DOT":"-0.00037526","TIME_SYSTEM":"UTC","SITE":"AFETR","CENTER_NAME":"EARTH","OBJECT_NAME":"STARLINK-3192","FILE":"3347638","ECCENTRICITY":"0.00034870","RCS_SIZE":"LARGE","TLE_LINE2":"2 49767  53.2170 236.1305 0003487  12.2703  29.1030 15.40497107  3613","MEAN_MOTION_DDOT":"0.0000000000000","NORAD_CAT_ID":"49767","MEAN_MOTION":"15.40497107","ELEMENT_SET_NO":"999","ARG_OF_PERICENTER":"12.2703","RA_OF_ASC_NODE":"236.1305","TLE_LINE1":"1 49767U 21115AV  22065.58334491 -.00037526  00000-0 -90587-3 0  9992","BSTAR":"-0.00090587000000","OBJECT_ID":"2021-115AV","OBJECT_TYPE":"PAYLOAD","EPHEMERIS_TYPE":"0","PERIOD":"93.476","MEAN_ELEMENT_THEORY":"SGP4","APOAPSIS":"447.022","SEMIMAJOR_AXIS":"6822.778","REV_AT_EPOCH":"361","REF_FRAME":"TEME","DECAY_DATE":null,"CLASSIFICATION_TYPE":"U","LAUNCH_DATE":"2021-12-02","INCLINATION":"53.2170","EPOCH":"2022-03-06T14:00:01.000224","MEAN_ANOMALY":"29.1030","PERIAPSIS":"442.264","COUNTRY_CODE":"US","GP_ID":"198069646"},{"NORAD_CAT_ID":"49768","MEAN_MOTION_DDOT":"0.0000000000000","RCS_SIZE":"LARGE","TLE_LINE2":"2 49768  53.2166 236.1332 0003844   9.2072  28.0049 15.40477787  3611","ECCENTRICITY":"0.00038440","FILE":"3347638","SITE":"AFETR","TIME_SYSTEM":"UTC","OBJECT_NAME":"STARLINK-3196","CENTER_NAME":"EARTH","MEAN_MOTION_DOT":"-0.00005019","SEMIMAJOR_AXIS":"6822.835","APOAPSIS":"447.323","EPHEMERIS_TYPE":"0","MEAN_ELEMENT_THEORY":"SGP4","PERIOD":"93.477","BSTAR":"-0.00011219000000","TLE_LINE1":"1 49768U 21115AW  22065.58334491 -.00005019  00000-0 -11219-3 0  9990","OBJECT_ID":"2021-115AW","OBJECT_TYPE":"PAYLOAD","RA_OF_ASC_NODE":"236.1332","ARG_OF_PERICENTER":"9.2072","MEAN_MOTION":"15.40477787","ELEMENT_SET_NO":"999","EPOCH":"2022-03-06T14:00:01.000224","INCLINATION":"53.2166","LAUNCH_DATE":"2021-12-02","CLASSIFICATION_TYPE":"U","DECAY_DATE":null,"REV_AT_EPOCH":"361","REF_FRAME":"TEME","GP_ID":"198069394","COUNTRY_CODE":"US","MEAN_ANOMALY":"28.0049","PERIAPSIS":"442.077"},{"CENTER_NAME":"EARTH","OBJECT_NAME":"STARLINK-3208","TIME_SYSTEM":"UTC","SITE":"AFETR","MEAN_MOTION_DOT":"-0.00026400","NORAD_CAT_ID":"49769","MEAN_MOTION_DDOT":"0.0000000000000","TLE_LINE2":"2 49769  53.2170 236.1354 0004329   5.7174  32.5293 15.40483244  3610","RCS_SIZE":"LARGE","FILE":"3347638","ECCENTRICITY":"0.00043290","OBJECT_ID":"2021-115AX","OBJECT_TYPE":"PAYLOAD","TLE_LINE1":"1 49769U 21115AX  22065.58334491 -.00026400  00000-0 -63364-3 0  9996","BSTAR":"-0.00063364000000","RA_OF_ASC_NODE":"236.1354","ARG_OF_PERICENTER":"5.7174","ELEMENT_SET_NO":"999","MEAN_MOTION":"15.40483244","SEMIMAJOR_AXIS":"6822.819","APOAPSIS":"447.638","PERIOD":"93.477","MEAN_ELEMENT_THEORY":"SGP4","EPHEMERIS_TYPE":"0","DECAY_DATE":null,"REF_FRAME":"TEME","REV_AT_EPOCH":"361","EPOCH":"2022-03-06T14:00:01.000224","LAUNCH_DATE":"2021-12-02","INCLINATION":"53.2170","CLASSIFICATION_TYPE":"U","COUNTRY_CODE":"US","PERIAPSIS":"441.730","MEAN_ANOMALY":"32.5293","GP_ID":"198068144"}];
